CCSDS_OMM_VERS,COMMENT,CREATION_DATE,ORIGINATOR,OBJECT_NAME,OBJECT_ID,CENTER_NAME,REF_FRAME,TIME_SYSTEM,MEAN_ELEMENT_THEORY,EPOCH,MEAN_MOTION,ECCENTRICITY,INCLINATION,RA_OF_ASC_NODE,ARG_OF_PERICENTER,MEAN_ANOMALY,EPHEMERIS_TYPE,CLASSIFICATION_TYPE,NORAD_CAT_ID,ELEMENT_SET_NO,REV_AT_EPOCH,BSTAR,MEAN_MOTION_DOT,MEAN_MOTION_DDOT,SEMIMAJOR_AXIS,PERIOD,APOAPSIS,PERIAPSIS,OBJECT_TYPE,RCS_SIZE,COUNTRY_CODE,LAUNCH_DATE,SITE,DECAY_DATE,FILE,GP_ID,TLE_LINE0,TLE_LINE1,TLE_LINE2
3.0,GENERATED VIA SPACE-TRACK.ORG API,2015-02-11T12:55:05,18 SPCS,FENGYUN 1C DEB,1999-025CWX,EARTH,TEME,UTC,SGP4,2015-02-09T04:24:35.237951,16.02523268,0.0017111,98.7679,25.4613,226.4763,194.0631,0,U,32306,999,41330,0.0045162,0.02479389,0.0055248,6645.57,89.858,278.806,256.064,DEBRIS,SMALL,PRC,1999-05-10,TSC,2015-02-10,1824908,98323969,0 FENGYUN 1C DEB,1 32306U 99025CWX 15040.18374118  .02479389  55248-2  45162-2 0  9990,2 32306 098.7679 025.4613 0017111 226.4763 194.0631 16.02523268413304
3.0,GENERATED VIA SPACE-TRACK.ORG API,2004-08-15T23:35:50,18 SPCS,COSMOS 157,1967-044A,EARTH,TEME,UTC,SGP4,1967-05-16T15:32:07.295423,16.11887573,0.0062852,51.2508,12.9358,24.0253,336.3572,0,U,2781,999,68,0.0,0.00217837,0.0,6619.811,89.336,283.283,200.069,PAYLOAD,,,,,1967-05-20,33915,8755634,0 COSMOS 157,1 02781U 67044  A 67136.64730666  .00217837 +00000-0 +00000-0 0  9998,2 02781 051.2508 012.9358 0062852 024.0253 336.3572 16.11887573000688
3.0,GENERATED VIA SPACE-TRACK.ORG API,2004-08-15T23:36:23,18 SPCS,SL-3 R/B,1968-077B,EARTH,TEME,UTC,SGP4,1968-09-22T07:50:53.108447,16.34065453,0.0027245,65.4168,140.619,30.1046,330.1587,0,U,3399,999,2,0.0,0.04619294,0.0,6559.778,88.123,199.515,163.771,ROCKET BODY,,,,,1968-09-22,33926,8789182,0 SL-3 R/B,1 03399U 68077  B 68266.32700357  .04619294 +00000-0 +00000-0 0  9992,2 03399 065.4168 140.6190 0027245 030.1046 330.1587 16.34065453000027
3.0,GENERATED VIA SPACE-TRACK.ORG API,2020-04-13T18:24:00,18 SPCS,FALCON 9 DEB,2020-019BQ,EARTH,TEME,UTC,SGP4,2020-04-13T04:02:47.457312,16.44096781,0.0012199,52.9884,123.1953,144.6385,215.5473,0,U,45422,999,476,0.00026683,0.08988292,1.2313e-05,6533.064,87.586,162.898,146.959,DEBRIS,MEDIUM,US,2020-03-18,AFETR,2020-04-13,2733371,152125760,0 FALCON 9 DEB,1 45422U 20019BQ  20104.16860483 +.08988292 +12313-4 +26683-3 0  9990,2 45422 052.9884 123.1953 0012199 144.6385 215.5473 16.44096781004762
3.0,GENERATED VIA SPACE-TRACK.ORG API,2020-10-21T19:12:42,18 SPCS,PROGNOZ 3,1973-009A,EARTH,TEME,UTC,SGP4,1976-07-06T02:04:12.000000,0.24962625,0.93173,65.002,197.08,290.79,90.595,0,U,6364,999,593,0.0001,1.878e-05,0.0,106547.109,5768.624,199442.113,895.836,PAYLOAD,,CIS,1973-02-15,TTMTR,1977-12-10,2857849,163953687,0 PROGNOZ 3,1  6364U 73009A   76188.08625000 +.00001878 +00000-0 +10000-3 0  9997,2  6364 065.0020 197.0800 9317300 290.7900 090.5950 00.24962625005930
3.0,GENERATED VIA SPACE-TRACK.ORG API,2011-10-03T08:22:34,18 SPCS,COSMOS 2251 DEB,1993-036ACP,EARTH,TEME,UTC,SGP4,2011-10-03T07:30:57.395519,15.71542429,0.0046217,73.9683,228.8849,217.875,141.9427,0,U,34876,999,13893,0.015406,0.02404426,0.0,6732.629,91.629,385.61,323.378,DEBRIS,SMALL,CIS,1993-06-16,PKMTR,2011-10-07,1164869,85248355,0 COSMOS 2251 DEB,1 34876U 93036ACP 11276.31316430  .02404426  00000-0  15406-1 0  9996,2 34876 073.9683 228.8849 0046217 217.8750 141.9427 15.71542429138939
3.0,GENERATED VIA SPACE-TRACK.ORG API,2015-02-16T15:30:35,18 SPCS,COSMOS 2251 DEB,1993-036UY,EARTH,TEME,UTC,SGP4,2015-02-16T01:11:31.005887,16.07894525,0.0012236,73.9299,46.2377,163.6713,196.4927,0,U,34562,999,31994,0.011634,0.06672244,0.11664,6630.762,89.558,260.74,244.514,DEBRIS,SMALL,CIS,1993-06-16,PKMTR,2015-02-16,1827343,98362817,0 COSMOS 2251 DEB,1 34562U 93036UY  15047.04966442  .06672244  11664+0  11634-1 0  9997,2 34562 073.9299 046.2377 0012236 163.6713 196.4927 16.07894525319942
3.0,GENERATED VIA SPACE-TRACK.ORG API,2004-08-16T23:16:38,18 SPCS,SL-4 R/B,1983-007B,EARTH,TEME,UTC,SGP4,1983-02-09T19:27:02.970719,16.37008095,0.0049183,70.3727,342.1575,64.7758,295.8424,0,U,13785,999,53,3.26e-07,0.11092284,6.07e-07,6551.914,87.965,206.003,141.555,ROCKET BODY,,,,,1983-02-10,34359,13436182,0 SL-4 R/B,1 13785U 83007  B 83040.81045105  .11092284 +06070-5 +00326-4 0  9991,2 13785 070.3727 342.1575 0049183 064.7758 295.8424 16.37008095000532
3.0,GENERATED VIA SPACE-TRACK.ORG API,2010-01-31T18:17:19,18 SPCS,FENGYUN 1C DEB,1999-025AGA,EARTH,TEME,UTC,SGP4,2010-01-31T19:03:30.134591,16.26208509,0.001334,98.8676,212.3668,204.5729,168.3984,0,U,30463,999,16770,0.0044943,0.14265016,3.4007e-06,6580.89,88.549,211.533,193.976,DEBRIS,SMALL,PRC,1999-05-10,TSC,2010-02-03,837793,76259140,0 FENGYUN 1C DEB,1 30463U 99025AGA 10031.79409878  .14265016  34007-5  44943-2 0  9998,2 30463 098.8676 212.3668 0013340 204.5729 168.3984 16.26208509167709
3.0,GENERATED VIA SPACE-TRACK.ORG API,2004-08-17T15:27:48,18 SPCS,CZ-4 DEB,1999-057FL,EARTH,TEME,UTC,SGP4,2000-11-08T05:43:19.754976,15.66114455,0.0023754,98.5787,48.908,340.1359,19.9581,0,U,26274,999,3482,0.04123,0.04283152,0.0,6748.176,91.947,386.071,354.012,DEBRIS,SMALL,PRC,1999-10-14,TSC,2000-11-08,35605,35080404,0 CZ-4 DEB,1 26274U 99057FL  00313.23842309  .04283152  00000-0  41230-1 0  9995,2 26274 098.5787 048.9080 0023754 340.1359 019.9581 15.66114455 34820
3.0,GENERATED VIA SPACE-TRACK.ORG API,2004-08-15T23:44:02,18 SPCS,COSMOS 1112 DEB,1979-063Y,EARTH,TEME,UTC,SGP4,1979-12-02T22:52:08.788799,15.96594715,0.0041632,50.6879,304.6235,34.9624,325.4093,0,U,11627,999,2266,6.798e-05,0.03197524,9.533e-08,6662.015,90.191,311.616,256.145,DEBRIS,,,,,1979-12-05,34079,11022691,0 COSMOS 1112 DEB,1 11627U 79063  Y 79336.95287950  .03197524 +09533-6 +06798-3 0  9995,2 11627 050.6879 304.6235 0041632 034.9624 325.4093 15.96594715022665
3.0,GENERATED VIA SPACE-TRACK.ORG API,2022-03-13T03:10:48,18 SPCS,COSMOS 1408 DEB,1982-092APN,EARTH,TEME,UTC,SGP4,2022-03-12T06:48:44.612352,16.22898956,0.0011732,82.4782,3.6054,211.9558,148.1022,0,U,50690,999,1161,0.008824,0.21075691,-1.1503e-06,6589.83,88.73,219.426,203.963,DEBRIS,SMALL,CIS,1982-09-16,PKMTR,2022-03-12,3356931,198605995,0 COSMOS 1408 DEB,1 50690U 82092APN 22071.28384968  .21075691 -11503-5  88240-2 0  9992,2 50690  82.4782   3.6054 0011732 211.9558 148.1022 16.22898956 11619
3.0,GENERATED VIA SPACE-TRACK.ORG API,2004-08-15T23:45:29,18 SPCS,COSMOS 252 DEB,1968-097BJ,EARTH,TEME,UTC,SGP4,1979-10-23T20:20:09.581567,14.29161835,0.0415826,62.2959,99.5433,231.6563,124.6441,0,U,3897,999,51830,0.0008024,0.00250493,0.0,7172.675,100.758,1092.798,496.281,DEBRIS,SMALL,CIS,1968-11-01,TTMTR,1980-01-02,34108,11059104,0 COSMOS 252 DEB,1 03897U 68097 BJ 79296.84733312  .00250493 +00000-0 +08024-2 0  9990,2 03897 062.2959 099.5433 0415826 231.6563 124.6441 14.29161835518306
3.0,GENERATED VIA SPACE-TRACK.ORG API,2012-02-02T12:08:15,18 SPCS,COSMOS 2251 DEB,1993-036XE,EARTH,TEME,UTC,SGP4,2012-02-01T06:25:33.152447,16.1130029,0.0011493,73.8496,338.3253,247.7615,117.9933,0,U,34633,999,16023,0.013802,0.08315213,0.30291,6621.419,89.368,250.894,235.674,DEBRIS,SMALL,CIS,1993-06-16,PKMTR,2012-02-01,1233105,87105870,0 COSMOS 2251 DEB,1 34633U 93036XE  12032.26774482  .08315213  30291+0  13802-1 0  9990,2 34633 073.8496 338.3253 0011493 247.7615 117.9933 16.11300290160233
3.0,GENERATED VIA SPACE-TRACK.ORG API,2004-08-15T23:39:05,18 SPCS,COSMOS 554 DEB,1973-021CJ,EARTH,TEME,UTC,SGP4,1973-09-07T20:57:03.739679,16.11209679,0.0075469,72.8916,358.4433,25.1294,335.3533,0,U,6525,999,1649,0.0,0.00667718,5.548e-06,6621.668,89.373,293.506,193.56,DEBRIS,,,,,1973-09-16,33980,9124345,0 COSMOS 554 DEB,1 06525U 73021 CJ 73250.87295995  .00667718 +05548-4 +00000-0 0  9993,2 06525 072.8916 358.4433 0075469 025.1294 335.3533 16.11209679016494
3.0,GENERATED VIA SPACE-TRACK.ORG API,2005-04-29T09:15:42,18 SPCS,NOAA 9 DEB,1984-123C,EARTH,TEME,UTC,SGP4,1992-11-10T19:13:35.461632,16.18943637,0.0014243,98.9844,53.5187,29.2159,328.4212,0,U,15441,999,41407,0.010159,0.17990041,3.5e-06,6600.562,88.946,231.828,213.026,DEBRIS,SMALL,US,1984-12-12,AFWTR,1992-11-11,131233,46329465,0 NOAA 9 DEB,1 15441U 84123  C 92315.80110488  .17990041 +35000-5 +10159-1 0  9994,2 15441 098.9844 053.5187 0014243 029.2159 328.4212 16.18943637414076
3.0,GENERATED VIA SPACE-TRACK.ORG API,2024-09-15T06:46:17,18 SPCS,LEMUR 2 JPGSQUARED,2019-089D,EARTH,TEME,UTC,SGP4,2024-09-14T01:45:47.941056,16.2385822,0.0012552,36.9605,127.9029,277.607,82.3286,0,U,44855,999,26285,0.0026256,0.07480515,3.6235e-06,6587.234,88.678,217.367,200.831,PAYLOAD,SMALL,US,2019-12-11,SRI,2024-09-11,4491906,268113722,0 LEMUR 2 JPGSQUARED,1 44855U 19089D   24258.07347154  .07480515  36235-5  26256-2 0  9992,2 44855  36.9605 127.9029 0012552 277.6070  82.3286 16.23858220262850
3.0,GENERATED VIA SPACE-TRACK.ORG API,2023-05-22T05:56:11,18 SPCS,SL-4 R/B,2022-163B,EARTH,TEME,UTC,SGP4,2023-05-22T05:43:50.942784,16.53204254,0.0030964,67.0714,204.4309,276.0693,146.6824,0,U,54382,999,2656,0.00018726,0.36200303,6.5025e-06,6509.048,87.104,151.068,110.759,ROCKET BODY,LARGE,CIS,2022-11-30,PKMTR,2023-05-22,3914087,232287817,0 SL-4 R/B,1 54382U 22163B   23142.23878406  .36200303  65025-5  18726-3 0  9993,2 54382  67.0714 204.4309 0030964 276.0693 146.6824 16.53204254 26568
3.0,GENERATED VIA SPACE-TRACK.ORG API,2004-08-16T23:15:23,18 SPCS,SL-12 R/B(AUX MOTOR),1981-027D,EARTH,TEME,UTC,SGP4,1981-06-11T14:27:13.767551,2.24147421,0.7332943,47.1366,231.5551,22.3202,357.6719,0,U,12396,999,189,0.0036648,0.00049361,-4.7397e-05,24663.021,642.434,36370.14,199.633,ROCKET BODY,MEDIUM,CIS,1981-03-18,TTMTR,1981-09-30,34334,12260530,0 SL-12 R/B(AUX MOTOR),1 12396U 81027  D 81162.60224268  .00049361 -47397-4 +36648-2 0  9994,2 12396 047.1366 231.5551 7332943 022.3202 357.6719 02.24147421001897
